[{"OBJECT_NAME":"STARLINK-4079","OBJECT_ID":"2022-053L","EPOCH":"2026-03-24T06:30:45.434880","MEAN_MOTION":15.08836257,"ECCENTRICITY":0.0001485,"INCLINATION":53.2175,"RA_OF_ASC_NODE":88.2727,"ARG_OF_PERICENTER":85.179,"MEAN_ANOMALY":274.9371,"EPHEMERIS_TYPE":0,"CLASSIFICATION_TYPE":"U","NORAD_CAT_ID":52666,"ELEMENT_SET_NO":999,"REV_AT_EPOCH":21325,"BSTAR":-5.9202e-5,"MEAN_MOTION_DOT":-1.23e-5,"MEAN_MOTION_DDOT":0},{"OBJECT_NAME":"STARLINK-4076","OBJECT_ID":"2022-053M","EPOCH":"2026-03-24T10:18:42.681024","MEAN_MOTION":15.0882965,"ECCENTRICITY":0.0001381,"INCLINATION":53.2172,"RA_OF_ASC_NODE":87.9502,"ARG_OF_PERICENTER":91.5762,"MEAN_ANOMALY":268.5388,"EPHEMERIS_TYPE":0,"CLASSIFICATION_TYPE":"U","NORAD_CAT_ID":52667,"ELEMENT_SET_NO":999,"REV_AT_EPOCH":21327,"BSTAR":-2.9085e-5,"MEAN_MOTION_DOT":-7.51e-6,"MEAN_MOTION_DDOT":0},{"OBJECT_NAME":"STARLINK-4067","OBJECT_ID":"2022-053N","EPOCH":"2026-03-24T04:07:44.626656","MEAN_MOTION":15.08836482,"ECCENTRICITY":0.00013421,"INCLINATION":53.2172,"RA_OF_ASC_NODE":89.1067,"ARG_OF_PERICENTER":85.6406,"MEAN_ANOMALY":274.4739,"EPHEMERIS_TYPE":0,"CLASSIFICATION_TYPE":"U","NORAD_CAT_ID":52668,"ELEMENT_SET_NO":999,"REV_AT_EPOCH":21323,"BSTAR":-6.4932496e-5,"MEAN_MOTION_DOT":-1.321e-5,"MEAN_MOTION_DDOT":0},{"OBJECT_NAME":"STARLINK-3972","OBJECT_ID":"2022-053P","EPOCH":"2026-03-24T06:52:01.366752","MEAN_MOTION":15.08838503,"ECCENTRICITY":0.0001392,"INCLINATION":53.2167,"RA_OF_ASC_NODE":88.5948,"ARG_OF_PERICENTER":86.4527,"MEAN_ANOMALY":273.6625,"EPHEMERIS_TYPE":0,"CLASSIFICATION_TYPE":"U","NORAD_CAT_ID":52669,"ELEMENT_SET_NO":999,"REV_AT_EPOCH":21324,"BSTAR":-7.1748e-5,"MEAN_MOTION_DOT":-1.43e-5,"MEAN_MOTION_DDOT":0},{"OBJECT_NAME":"STARLINK-4075","OBJECT_ID":"2022-053Q","EPOCH":"2026-03-24T10:34:37.338816","MEAN_MOTION":15.08827981,"ECCENTRICITY":0.0001133,"INCLINATION":53.2162,"RA_OF_ASC_NODE":87.9676,"ARG_OF_PERICENTER":59.4088,"MEAN_ANOMALY":300.7016,"EPHEMERIS_TYPE":0,"CLASSIFICATION_TYPE":"U","NORAD_CAT_ID":52670,"ELEMENT_SET_NO":999,"REV_AT_EPOCH":21327,"BSTAR":4.5314e-7,"MEAN_MOTION_DOT":-2.81e-6,"MEAN_MOTION_DDOT":0},{"OBJECT_NAME":"STARLINK-4071","OBJECT_ID":"2022-053R","EPOCH":"2026-03-24T06:46:43.694688","MEAN_MOTION":15.08820867,"ECCENTRICITY":0.0001405,"INCLINATION":53.2168,"RA_OF_ASC_NODE":88.6099,"ARG_OF_PERICENTER":88.9228,"MEAN_ANOMALY":271.1925,"EPHEMERIS_TYPE":0,"CLASSIFICATION_TYPE":"U","NORAD_CAT_ID":52671,"ELEMENT_SET_NO":999,"REV_AT_EPOCH":21324,"BSTAR":8.8316e-5,"MEAN_MOTION_DOT":1.117e-5,"MEAN_MOTION_DDOT":0},{"OBJECT_NAME":"STARLINK-4073","OBJECT_ID":"2022-053S","EPOCH":"2026-03-24T07:02:36.939840","MEAN_MOTION":15.08846446,"ECCENTRICITY":0.0001219,"INCLINATION":53.2165,"RA_OF_ASC_NODE":88.5615,"ARG_OF_PERICENTER":83.8472,"MEAN_ANOMALY":276.2659,"EPHEMERIS_TYPE":0,"CLASSIFICATION_TYPE":"U","NORAD_CAT_ID":52672,"ELEMENT_SET_NO":999,"REV_AT_EPOCH":21324,"BSTAR":9.8633e-5,"MEAN_MOTION_DOT":1.282e-5,"MEAN_MOTION_DDOT":0},{"OBJECT_NAME":"STARLINK-3976","OBJECT_ID":"2022-053T","EPOCH":"2026-03-24T06:36:07.329312","MEAN_MOTION":15.08822123,"ECCENTRICITY":0.0001404,"INCLINATION":53.2172,"RA_OF_ASC_NODE":88.6402,"ARG_OF_PERICENTER":90.706,"MEAN_ANOMALY":269.4093,"EPHEMERIS_TYPE":0,"CLASSIFICATION_TYPE":"U","NORAD_CAT_ID":52673,"ELEMENT_SET_NO":999,"REV_AT_EPOCH":21324,"BSTAR":-8.8121e-5,"MEAN_MOTION_DOT":-1.689e-5,"MEAN_MOTION_DDOT":0},{"OBJECT_NAME":"STARLINK-3936","OBJECT_ID":"2022-053U","EPOCH":"2026-03-24T06:44:59.514432","MEAN_MOTION":15.11273403,"ECCENTRICITY":0.0001405,"INCLINATION":53.2212,"RA_OF_ASC_NODE":88.5287,"ARG_OF_PERICENTER":96.3131,"MEAN_ANOMALY":263.8022,"EPHEMERIS_TYPE":0,"CLASSIFICATION_TYPE":"U","NORAD_CAT_ID":52674,"ELEMENT_SET_NO":999,"REV_AT_EPOCH":21325,"BSTAR":-0.00086947,"MEAN_MOTION_DOT":-0.00015061,"MEAN_MOTION_DDOT":0},{"OBJECT_NAME":"STARLINK-3934","OBJECT_ID":"2022-053V","EPOCH":"2026-03-24T06:32:08.848032","MEAN_MOTION":15.08834705,"ECCENTRICITY":0.0001311,"INCLINATION":53.2166,"RA_OF_ASC_NODE":78.6558,"ARG_OF_PERICENTER":77.8135,"MEAN_ANOMALY":282.3004,"EPHEMERIS_TYPE":0,"CLASSIFICATION_TYPE":"U","NORAD_CAT_ID":52675,"ELEMENT_SET_NO":999,"REV_AT_EPOCH":21337,"BSTAR":-2.9984e-5,"MEAN_MOTION_DOT":-7.65e-6,"MEAN_MOTION_DDOT":0},{"OBJECT_NAME":"STARLINK-4006","OBJECT_ID":"2022-053W","EPOCH":"2026-03-24T06:41:25.501632","MEAN_MOTION":15.08841024,"ECCENTRICITY":0.000111,"INCLINATION":53.2177,"RA_OF_ASC_NODE":88.6245,"ARG_OF_PERICENTER":89.6779,"MEAN_ANOMALY":270.4341,"EPHEMERIS_TYPE":0,"CLASSIFICATION_TYPE":"U","NORAD_CAT_ID":52676,"ELEMENT_SET_NO":999,"REV_AT_EPOCH":21324,"BSTAR":-7.2199e-5,"MEAN_MOTION_DOT":-1.437e-5,"MEAN_MOTION_DDOT":0},{"OBJECT_NAME":"STARLINK-4074","OBJECT_ID":"2022-053Y","EPOCH":"2026-03-24T06:48:04.765536","MEAN_MOTION":15.08830849,"ECCENTRICITY":7.35e-5,"INCLINATION":53.2173,"RA_OF_ASC_NODE":78.7134,"ARG_OF_PERICENTER":39.4481,"MEAN_ANOMALY":320.6565,"EPHEMERIS_TYPE":0,"CLASSIFICATION_TYPE":"U","NORAD_CAT_ID":52678,"ELEMENT_SET_NO":999,"REV_AT_EPOCH":21337,"BSTAR":0.00017501,"MEAN_MOTION_DOT":2.498e-5,"MEAN_MOTION_DDOT":0},{"OBJECT_NAME":"STARLINK-4031","OBJECT_ID":"2022-053Z","EPOCH":"2026-03-24T06:05:39.297120","MEAN_MOTION":15.08840545,"ECCENTRICITY":0.0001422,"INCLINATION":53.2176,"RA_OF_ASC_NODE":78.7381,"ARG_OF_PERICENTER":91.5443,"MEAN_ANOMALY":268.5712,"EPHEMERIS_TYPE":0,"CLASSIFICATION_TYPE":"U","NORAD_CAT_ID":52679,"ELEMENT_SET_NO":999,"REV_AT_EPOCH":21333,"BSTAR":-0.00013429,"MEAN_MOTION_DOT":-2.425e-5,"MEAN_MOTION_DDOT":0},{"OBJECT_NAME":"STARLINK-3774","OBJECT_ID":"2022-053AA","EPOCH":"2026-03-24T05:55:00.989472","MEAN_MOTION":15.08848768,"ECCENTRICITY":0.0001147,"INCLINATION":53.2164,"RA_OF_ASC_NODE":78.5388,"ARG_OF_PERICENTER":76.4976,"MEAN_ANOMALY":283.6144,"EPHEMERIS_TYPE":0,"CLASSIFICATION_TYPE":"U","NORAD_CAT_ID":52680,"ELEMENT_SET_NO":999,"REV_AT_EPOCH":21335,"BSTAR":5.9116e-5,"MEAN_MOTION_DOT":6.53e-6,"MEAN_MOTION_DDOT":0},{"OBJECT_NAME":"STARLINK-4068","OBJECT_ID":"2022-053AB","EPOCH":"2026-03-24T06:00:21.480768","MEAN_MOTION":15.08820065,"ECCENTRICITY":0.0001504,"INCLINATION":53.2171,"RA_OF_ASC_NODE":78.7547,"ARG_OF_PERICENTER":91.786,"MEAN_ANOMALY":268.3304,"EPHEMERIS_TYPE":0,"CLASSIFICATION_TYPE":"U","NORAD_CAT_ID":52681,"ELEMENT_SET_NO":999,"REV_AT_EPOCH":21333,"BSTAR":0.0001476,"MEAN_MOTION_DOT":2.061e-5,"MEAN_MOTION_DDOT":0},{"OBJECT_NAME":"STARLINK-4017","OBJECT_ID":"2022-053AC","EPOCH":"2026-03-24T06:16:14.730240","MEAN_MOTION":15.08835652,"ECCENTRICITY":0.0001205,"INCLINATION":53.2169,"RA_OF_ASC_NODE":78.7033,"ARG_OF_PERICENTER":81.5732,"MEAN_ANOMALY":278.5397,"EPHEMERIS_TYPE":0,"CLASSIFICATION_TYPE":"U","NORAD_CAT_ID":52682,"ELEMENT_SET_NO":999,"REV_AT_EPOCH":21335,"BSTAR":-1.9842e-5,"MEAN_MOTION_DOT":-6.04e-6,"MEAN_MOTION_DDOT":0},{"OBJECT_NAME":"STARLINK-4014","OBJECT_ID":"2022-053AE","EPOCH":"2026-03-24T06:10:57.147168","MEAN_MOTION":15.08835388,"ECCENTRICITY":0.0001295,"INCLINATION":53.2176,"RA_OF_ASC_NODE":78.7226,"ARG_OF_PERICENTER":81.8186,"MEAN_ANOMALY":278.2953,"EPHEMERIS_TYPE":0,"CLASSIFICATION_TYPE":"U","NORAD_CAT_ID":52684,"ELEMENT_SET_NO":999,"REV_AT_EPOCH":21333,"BSTAR":-2.6228e-5,"MEAN_MOTION_DOT":-7.05e-6,"MEAN_MOTION_DDOT":0}]
