STARLINK-4079           
1 52666U 22053L   26083.27135920 -.00001230  00000+0 -59202-4 0  9994
2 52666  53.2175  88.2727 0001485  85.1790 274.9371 15.08836257213253
STARLINK-4076           
1 52667U 22053M   26083.42966066 -.00000751  00000+0 -29085-4 0  9998
2 52667  53.2172  87.9502 0001381  91.5762 268.5388 15.08829650213271
STARLINK-4067           
1 52668U 22053N   26083.17204429 -.00001321  00000+0 -64932-4 0  9993
2 52668  53.2172  89.1067 0001342  85.6406 274.4739 15.08836482213231
STARLINK-3972           
1 52669U 22053P   26083.28612693 -.00001430  00000+0 -71748-4 0  9996
2 52669  53.2167  88.5948 0001392  86.4527 273.6625 15.08838503213247
STARLINK-4075           
1 52670U 22053Q   26083.44070994 -.00000281  00000+0  45314-6 0  9992
2 52670  53.2162  87.9676 0001133  59.4088 300.7016 15.08827981213277
STARLINK-4071           
1 52671U 22053R   26083.28245017  .00001117  00000+0  88316-4 0  9990
2 52671  53.2168  88.6099 0001405  88.9228 271.1925 15.08820867213249
STARLINK-4073           
1 52672U 22053S   26083.29348310  .00001282  00000+0  98633-4 0  9998
2 52672  53.2165  88.5615 0001219  83.8472 276.2659 15.08846446213249
STARLINK-3976           
1 52673U 22053T   26083.27508483 -.00001689  00000+0 -88121-4 0  9990
2 52673  53.2172  88.6402 0001404  90.7060 269.4093 15.08822123213241
STARLINK-3936           
1 52674U 22053U   26083.28124438 -.00015061  00000+0 -86947-3 0  9998
2 52674  53.2212  88.5287 0001405  96.3131 263.8022 15.11273403213255
STARLINK-3934           
1 52675U 22053V   26083.27232463 -.00000765  00000+0 -29984-4 0  9990
2 52675  53.2166  78.6558 0001311  77.8135 282.3004 15.08834705213372
STARLINK-4006           
1 52676U 22053W   26083.27876738 -.00001437  00000+0 -72199-4 0  9993
2 52676  53.2177  88.6245 0001110  89.6779 270.4341 15.08841024213241
STARLINK-4074           
1 52678U 22053Y   26083.28338849  .00002498  00000+0  17501-3 0  9993
2 52678  53.2173  78.7134 0000735  39.4481 320.6565 15.08830849213374
STARLINK-4031           
1 52679U 22053Z   26083.25392705 -.00002425  00000+0 -13429-3 0  9999
2 52679  53.2176  78.7381 0001422  91.5443 268.5712 15.08840545213337
STARLINK-3774           
1 52680U 22053AA  26083.24653923  .00000653  00000+0  59116-4 0  9995
2 52680  53.2164  78.5388 0001147  76.4976 283.6144 15.08848768213352
STARLINK-4068           
1 52681U 22053AB  26083.25024862  .00002061  00000+0  14760-3 0  9991
2 52681  53.2171  78.7547 0001504  91.7860 268.3304 15.08820065213335
STARLINK-4017           
1 52682U 22053AC  26083.26128160 -.00000604  00000+0 -19842-4 0  9999
2 52682  53.2169  78.7033 0001205  81.5732 278.5397 15.08835652213351
STARLINK-4014           
1 52684U 22053AE  26083.25760587 -.00000705  00000+0 -26228-4 0  9993
2 52684  53.2176  78.7226 0001295  81.8186 278.2953 15.08835388213339
